#aV2023  5 16  0  0  0.00000000     288 DD+AD WGS84 FIT  NGA
## 2262 172800.00000000   300.00000000 60080 0.0000000000000
+   32     1  2  3  4  5  6  7  8  9 10 11 12 13 14 15 16 17
+         18 19 20 21 22 23 24 25 26 27 28 29 30 31 32  0  0
+          0  0  0  0  0  0  0  0  0  0  0  0  0  0  0  0  0
+          0  0  0  0  0  0  0  0  0  0  0  0  0  0  0  0  0
+          0  0  0  0  0  0  0  0  0  0  0  0  0  0  0  0  0
++         2  2  2  2  2  2  2  2  2  2  2  2  2  2  2  2  2
++         2  2  2  2  2  2  2  2  2  2  2  2  2  2  2  0  0
++         0  0  0  0  0  0  0  0  0  0  0  0  0  0  0  0  0
++         0  0  0  0  0  0  0  0  0  0  0  0  0  0  0  0  0
++         0  0  0  0  0  0  0  0  0  0  0  0  0  0  0  0  0
%c cc cc ccc ccc cccc cccc cccc cccc ccccc ccccc ccccc ccccc
%c cc cc ccc ccc cccc cccc cccc cccc ccccc ccccc ccccc ccccc
%f  0.0000000  0.000000000  0.00000000000  0.000000000000000
%f  0.0000000  0.000000000  0.00000000000  0.000000000000000
%i    0    0    0    0      0      0      0      0         0
%i    0    0    0    0      0      0      0      0         0
/*      NGA, ST. LOUIS,MO.                                  
/*   EPHEMERIS COMPUTED FROM 2 DAYS OF DATA                 
/*   EPOCHA v8 SMOOTHER                                     
/*   G2139 IERS2010 SATIGS SATAPC                           
*  2023  5 16 18 10  0.00000000
P  1  20581.630551  12471.772539  11289.661198    184.881570                    
V  1   8507.670575  12060.178721 -27663.337368     -0.028056                    
P  2   8112.718286  20938.531020 -13938.132820   -595.569309                    
V  2 -14711.732849 -11266.867735 -24322.378889      0.038789                    
P  3  14621.755289   2611.244165  21881.448717   -301.407305                    
V  3  -8519.530428  26729.056655   2605.441871      0.113236                    
P  4  25442.785839   1051.879906   7766.416384     43.100457                    
V  4  -9237.251682   4150.050851  29635.658400      0.097907                    
P  5  -7339.720410 -18714.674409 -17472.071256   -127.437694                    
V  5   7412.453093 -20648.008542  19309.690370     -0.014588                    
P  6   1013.820140 -18147.202818  19390.743285    587.986796                    
V  6  16878.520452  17723.908129  15848.076546     -0.004068                    
P  7  17246.941424  -1892.723404 -19784.440421    176.674189                    
V  7  16545.879860  20127.661956  11739.106138     -0.093751                    
P  8  18454.505352   8236.379862 -17505.922140   -122.720735                    
V  8 -21002.942458   6529.579053 -18760.223374     -0.018269                    
P  9  25409.619312  -7520.217561  -2185.478034   -157.454520                    
V  9   3285.277458   2244.746398  31450.021455      0.084170                    
P 10 -11089.023151  23403.242953  -4921.186645    -37.182687                    
V 10   -336.949585  -6962.451266 -31531.232522     -0.016054                    
P 11 -11124.392174 -22727.183202   8146.622977   -199.194893                    
V 11   8390.979437   6484.756688  29537.725516     -0.139074                    
P 12 -13503.257201  -6522.032644  21643.837481   -376.805667                    
V 12  10654.855525 -26042.119068  -1103.767138     -0.046707                    
P 13 -10826.759503 -13342.003895 -20484.742116    520.831078                    
V 13  25418.504683  -2566.969108 -11664.049794      0.053680                    
P 14  13562.279247 -21432.295054  -7610.372476     59.022362                    
V 14   -392.929447  10210.512564 -29559.258782      0.127824                    
P 15 -19614.168239  -6539.155107 -17272.073592     40.116183                    
V 15  19126.196510  -9006.590392 -18549.538828      0.034705                    
P 16   2832.343781  21166.975204 -15798.456111   -500.459389                    
V 16  -9629.650146  17288.727493  22303.284937      0.033222                    
P 17  16917.466714 -13429.412294  15956.056317    715.023271                    
V 17  19417.830941  -1351.797721 -22226.380719      0.014060                    
P 18 -14700.541497   5321.003634 -21494.691758   -268.892037                    
V 18 -17458.596306 -20893.226664   6618.796707     -0.157791                    
P 19   8347.285714 -14666.288701  20204.004282    317.743995                    
V 19  26190.289798  -1538.441399 -12096.279750      0.051094                    
P 20  -3245.003608 -24659.272895  -9558.702932    433.240708                    
V 20   4496.868922 -11607.327682  28120.180727     -0.020673                    
P 21  21175.239263  16532.966777   3519.555785    153.785672                    
V 21   1329.549299   3970.207941 -30818.058356     -0.002202                    
P 22  -4391.369807  15616.750373  21455.547617    482.370418                    
V 22 -26104.316913   2588.807656  -7542.564024      0.063767                    
P 23 -15425.236539  14911.163020 -15552.793073     24.731269                    
V 23   3885.018526 -19487.468109 -22676.028646      0.031257                    
P 24 -21827.907460 -13983.895899   6357.939780   -191.000985                    
V 24  -3989.363356  -8131.030595 -29482.540279     -0.138366                    
P 25 -16473.837841   6607.336430  19362.581649    443.261400                    
V 25   6141.643240 -24663.775297  13685.599762      0.026841                    
P 26  -3579.603791  25855.931607  -3907.567077    240.711734                    
V 26  -4957.680682   3787.069809  30845.165575     -0.004999                    
P 27   7105.392869  13850.078581 -21812.088551     36.173026                    
V 27 -26398.235575   5836.150894  -4545.572420     -0.080279                    
P 28  -2426.637718  17457.380323  19847.960054     78.084768                    
V 28 -18327.113424 -17405.962645  13047.948540      0.032813                    
P 29 -26419.380327   3126.811035    526.927131   -599.644766                    
V 29    432.700751  -2327.668755  32026.960843     -0.013675                    
P 30   9286.287298 -12978.123177 -21092.633306   -516.826700                    
V 30  18429.693689  19978.883113  -4422.045123      0.021843                    
P 31   6477.757939  21841.413274  13115.163603   -216.236428                    
V 31 -13223.056539 -11211.899947  25306.911728     -0.007502                    
P 32 -13648.110179  15224.421919  17026.661837   -478.021966                    
V 32 -21257.939221   2765.126724 -19915.210782     -0.092067                    
EOF
